SKYKRAFT-1A             
1 55054U 23001AX  26068.71064616  .00008177  00000+0  30069-3 0  9991
2 55054  97.3349 127.6290 0011277 121.5092 238.7251 15.28083228176529
STARLINK-36488          
1 67306U 26002B   26068.41525493  .00036487  00000+0  13291-2 0  9992
2 67306  43.0006 327.1045 0000433 359.2069   0.8782 15.27575874 11034
